{
    "links": {
        "self": "http://www.neowsapp.com/rest/v1/neo/3843718?api_key=iIulBulltgU6a56xZRHN4H3l9WmuAYTsLGpBGhQ2"
    },
    "id": "3843718",
    "neo_reference_id": "3843718",
    "name": "(2019 QC7)",
    "designation": "2019 QC7",
    "nasa_jpl_url": "http://ssd.jpl.nasa.gov/sbdb.cgi?sstr=3843718",
    "absolute_magnitude_h": 21.5,
    "estimated_diameter": {
        "kilometers": {
            "estimated_diameter_min": 0.1332155667,
            "estimated_diameter_max": 0.2978790628
        },
        "meters": {
            "estimated_diameter_min": 133.2155666981,
            "estimated_diameter_max": 297.8790627982
        },
        "miles": {
            "estimated_diameter_min": 0.0827762899,
            "estimated_diameter_max": 0.1850934111
        },
        "feet": {
            "estimated_diameter_min": 437.0589598459,
            "estimated_diameter_max": 977.2935443908
        }
    },
    "is_potentially_hazardous_asteroid": false,
    "close_approach_data": [
        {
            "close_approach_date": "2001-09-05",
            "close_approach_date_full": "2001-Sep-05 13:05",
            "epoch_date_close_approach": 999695100000,
            "relative_velocity": {
                "kilometers_per_second": "20.1868844967",
                "kilometers_per_hour": "72672.7841881283",
                "miles_per_hour": "45156.0419306734"
            },
            "miss_distance": {
                "astronomical": "0.3856327365",
                "lunar": "150.0111344985",
                "kilometers": "57689835.982671255",
                "miles": "35846801.841343119"
            },
            "orbiting_body": "Earth"
        },
        {
            "close_approach_date": "2010-09-04",
            "close_approach_date_full": "2010-Sep-04 07:25",
            "epoch_date_close_approach": 1283585100000,
            "relative_velocity": {
                "kilometers_per_second": "19.5183496843",
                "kilometers_per_hour": "70266.0588634444",
                "miles_per_hour": "43660.5964087885"
            },
            "miss_distance": {
                "astronomical": "0.262650734",
                "lunar": "102.171135526",
                "kilometers": "39291990.36033658",
                "miles": "24414910.675461604"
            },
            "orbiting_body": "Earth"
        },
        {
            "close_approach_date": "2019-09-02",
            "close_approach_date_full": "2019-Sep-02 19:33",
            "epoch_date_close_approach": 1567452780000,
            "relative_velocity": {
                "kilometers_per_second": "19.7720806514",
                "kilometers_per_hour": "71179.4903449316",
                "miles_per_hour": "44228.1672090493"
            },
            "miss_distance": {
                "astronomical": "0.2967500475",
                "lunar": "115.4357684775",
                "kilometers": "44393175.028398825",
                "miles": "27584639.845900785"
            },
            "orbiting_body": "Earth"
        },
        {
            "close_approach_date": "2028-08-31",
            "close_approach_date_full": "2028-Aug-31 06:16",
            "epoch_date_close_approach": 1851315360000,
            "relative_velocity": {
                "kilometers_per_second": "20.9618060829",
                "kilometers_per_hour": "75462.501898409",
                "miles_per_hour": "46889.4640268198"
            },
            "miss_distance": {
                "astronomical": "0.4527029165",
                "lunar": "176.1014345185",
                "kilometers": "67723392.051187855",
                "miles": "42081364.481808199"
            },
            "orbiting_body": "Earth"
        }
    ],
    "orbital_data": {
        "orbit_id": "5",
        "orbit_determination_date": "2020-09-11 07:43:59",
        "first_observation_date": "2019-08-24",
        "last_observation_date": "2019-09-18",
        "data_arc_in_days": 25,
        "observations_used": 27,
        "orbit_uncertainty": "7",
        "minimum_orbit_intersection": ".254545",
        "jupiter_tisserand_invariant": "3.907",
        "epoch_osculation": "2459000.5",
        "eccentricity": ".2633856820404741",
        "semi_major_axis": "1.71214205065888",
        "inclination": "38.36134189167919",
        "ascending_node_longitude": "340.7819631821314",
        "orbital_period": "818.2916461791466",
        "perihelion_distance": "1.261188348895915",
        "perihelion_argument": "6.189500670190423",
        "aphelion_distance": "2.163095752421845",
        "perihelion_time": "2458728.112966182249",
        "mean_anomaly": "119.8342090283571",
        "mean_motion": ".4399409448708781",
        "equinox": "J2000",
        "orbit_class": {
            "orbit_class_type": "AMO",
            "orbit_class_description": "Near-Earth asteroid orbits similar to that of 1221 Amor",
            "orbit_class_range": "1.017 AU < q (perihelion) < 1.3 AU"
        }
    },
    "is_sentry_object": false
}